{"type": "FeatureCollection", "features": [{"type": "Feature", "properties": {"kind": "forecast", "hotspot": "palk-bay", "sweeps": 0.76, "rbs10": 0.5452148715679452, "rbs10_reformed": 0.5452148715679452, "collapse": null, "chronic": false}, "geometry": {"type": "Polygon", "coordinates": [[[78.9, 9.2], [79.0, 9.2], [79.0, 9.299999999999999], [78.9, 9.299999999999999], [78.9, 9.2]]]}}, {"type": "Feature", "properties": {"kind": "forecast", "hotspot": "palk-bay", "sweeps": 1.42, "rbs10": 0.4089863264384227, "rbs10_reformed": 0.4089863264384227, "collapse": null, "chronic": true}, "geometry": {"type": "Polygon", "coordinates": [[[78.9, 9.299999999999999], [79.0, 9.299999999999999], [79.0, 9.399999999999999], [78.9, 9.399999999999999], [78.9, 9.299999999999999]]]}}, {"type": "Feature", "properties": {"kind": "forecast", "hotspot": "palk-bay", "sweeps": 2.06, "rbs10": 0.29097339410897105, "rbs10_reformed": 0.33693962870770466, "collapse": null, "chronic": true}, "geometry": {"type": "Polygon", "coordinates": [[[78.9, 9.399999999999999], [79.0, 9.399999999999999], [79.0, 9.499999999999998], [78.9, 9.499999999999998], [78.9, 9.399999999999999]]]}}, {"type": "Feature", "properties": {"kind": "forecast", "hotspot": "palk-bay", "sweeps": 2.34, "rbs10": 0.2731100042214918, "rbs10_reformed": 0.3156506395177912, "collapse": null, "chronic": true}, "geometry": {"type": "Polygon", "coordinates": [[[78.9, 9.5], [79.0, 9.5], [79.0, 9.6], [78.9, 9.6], [78.9, 9.5]]]}}, {"type": "Feature", "properties": {"kind": "forecast", "hotspot": "palk-bay", "sweeps": 2.06, "rbs10": 0.2909733941089704, "rbs10_reformed": 0.33693962870770394, "collapse": null, "chronic": true}, "geometry": {"type": "Polygon", "coordinates": [[[78.9, 9.6], [79.0, 9.6], [79.0, 9.7], [78.9, 9.7], [78.9, 9.6]]]}}, {"type": "Feature", "properties": {"kind": "forecast", "hotspot": "palk-bay", "sweeps": 1.42, "rbs10": 0.4089863264384209, "rbs10_reformed": 0.4089863264384209, "collapse": null, "chronic": true}, "geometry": {"type": "Polygon", "coordinates": [[[78.9, 9.7], [79.0, 9.7], [79.0, 9.799999999999999], [78.9, 9.799999999999999], [78.9, 9.7]]]}}, {"type": "Feature", "properties": {"kind": "forecast", "hotspot": "palk-bay", "sweeps": 0.76, "rbs10": 0.5452148715679423, "rbs10_reformed": 0.5452148715679423, "collapse": null, "chronic": false}, "geometry": {"type": "Polygon", "coordinates": [[[78.9, 9.799999999999999], [79.0, 9.799999999999999], [79.0, 9.899999999999999], [78.9, 9.899999999999999], [78.9, 9.799999999999999]]]}}, {"type": "Feature", "properties": {"kind": "forecast", "hotspot": "palk-bay", "sweeps": 0.32, "rbs10": 0.7168010086916238, "rbs10_reformed": 0.7168010086916238, "collapse": null, "chronic": false}, "geometry": {"type": "Polygon", "coordinates": [[[78.9, 9.899999999999999], [79.0, 9.899999999999999], [79.0, 9.999999999999998], [78.9, 9.999999999999998], [78.9, 9.899999999999999]]]}}, {"type": "Feature", "properties": {"kind": "forecast", "hotspot": "palk-bay", "sweeps": 1.42, "rbs10": 0.4089863264384299, "rbs10_reformed": 0.4089863264384299, "collapse": null, "chronic": true}, "geometry": {"type": "Polygon", "coordinates": [[[79.0, 9.2], [79.1, 9.2], [79.1, 9.299999999999999], [79.0, 9.299999999999999], [79.0, 9.2]]]}}, {"type": "Feature", "properties": {"kind": "forecast", "hotspot": "palk-bay", "sweeps": 2.65, "rbs10": 0.295861034170002, "rbs10_reformed": 0.295861034170002, "collapse": null, "chronic": true}, "geometry": {"type": "Polygon", "coordinates": [[[79.0, 9.299999999999999], [79.1, 9.299999999999999], [79.1, 9.399999999999999], [79.0, 9.399999999999999], [79.0, 9.299999999999999]]]}}, {"type": "Feature", "properties": {"kind": "forecast", "hotspot": "palk-bay", "sweeps": 3.85, "rbs10": 0.1805405164132472, "rbs10_reformed": 0.2456578735130034, "collapse": 2, "chronic": true}, "geometry": {"type": "Polygon", "coordinates": [[[79.0, 9.399999999999999], [79.1, 9.399999999999999], [79.1, 9.499999999999998], [79.0, 9.499999999999998], [79.0, 9.399999999999999]]]}}, {"type": "Feature", "properties": {"kind": "forecast", "hotspot": "palk-bay", "sweeps": 4.37, "rbs10": 0.16002526779339285, "rbs10_reformed": 0.23193537168965475, "collapse": 1, "chronic": true}, "geometry": {"type": "Polygon", "coordinates": [[[79.0, 9.5], [79.1, 9.5], [79.1, 9.6], [79.0, 9.6], [79.0, 9.5]]]}}, {"type": "Feature", "properties": {"kind": "forecast", "hotspot": "palk-bay", "sweeps": 3.85, "rbs10": 0.180540516413247, "rbs10_reformed": 0.2456578735130029, "collapse": 2, "chronic": true}, "geometry": {"type": "Polygon", "coordinates": [[[79.0, 9.6], [79.1, 9.6], [79.1, 9.7], [79.0, 9.7], [79.0, 9.6]]]}}, {"type": "Feature", "properties": {"kind": "forecast", "hotspot": "palk-bay", "sweeps": 2.65, "rbs10": 0.2567763347736138, "rbs10_reformed": 0.29586103417000054, "collapse": null, "chronic": true}, "geometry": {"type": "Polygon", "coordinates": [[[79.0, 9.7], [79.1, 9.7], [79.1, 9.799999999999999], [79.0, 9.799999999999999], [79.0, 9.7]]]}}, {"type": "Feature", "properties": {"kind": "forecast", "hotspot": "palk-bay", "sweeps": 1.42, "rbs10": 0.40898632643842714, "rbs10_reformed": 0.40898632643842714, "collapse": null, "chronic": true}, "geometry": {"type": "Polygon", "coordinates": [[[79.0, 9.799999999999999], [79.1, 9.799999999999999], [79.1, 9.899999999999999], [79.0, 9.899999999999999], [79.0, 9.799999999999999]]]}}, {"type": "Feature", "properties": {"kind": "forecast", "hotspot": "palk-bay", "sweeps": 0.59, "rbs10": 0.5992438731674504, "rbs10_reformed": 0.5992438731674504, "collapse": null, "chronic": false}, "geometry": {"type": "Polygon", "coordinates": [[[79.0, 9.899999999999999], [79.1, 9.899999999999999], [79.1, 9.999999999999998], [79.0, 9.999999999999998], [79.0, 9.899999999999999]]]}}, {"type": "Feature", "properties": {"kind": "forecast", "hotspot": "palk-bay", "sweeps": 2.06, "rbs10": 0.3369396287077062, "rbs10_reformed": 0.3369396287077062, "collapse": null, "chronic": true}, "geometry": {"type": "Polygon", "coordinates": [[[79.10000000000001, 9.2], [79.2, 9.2], [79.2, 9.299999999999999], [79.10000000000001, 9.299999999999999], [79.10000000000001, 9.2]]]}}, {"type": "Feature", "properties": {"kind": "forecast", "hotspot": "palk-bay", "sweeps": 3.85, "rbs10": 0.198545727159192, "rbs10_reformed": 0.24565787351300034, "collapse": 4, "chronic": true}, "geometry": {"type": "Polygon", "coordinates": [[[79.10000000000001, 9.299999999999999], [79.2, 9.299999999999999], [79.2, 9.399999999999999], [79.10000000000001, 9.399999999999999], [79.10000000000001, 9.299999999999999]]]}}, {"type": "Feature", "properties": {"kind": "forecast", "hotspot": "palk-bay", "sweeps": 5.61, "rbs10": 0.160002209297916, "rbs10_reformed": 0.20879625067290705, "collapse": 1, "chronic": true}, "geometry": {"type": "Polygon", "coordinates": [[[79.10000000000001, 9.399999999999999], [79.2, 9.399999999999999], [79.2, 9.499999999999998], [79.10000000000001, 9.499999999999998], [79.10000000000001, 9.399999999999999]]]}}, {"type": "Feature", "properties": {"kind": "forecast", "hotspot": "palk-bay", "sweeps": 6.35, "rbs10": 0.16000050962106002, "rbs10_reformed": 0.1992772558661775, "collapse": 1, "chronic": true}, "geometry": {"type": "Polygon", "coordinates": [[[79.10000000000001, 9.5], [79.2, 9.5], [79.2, 9.6], [79.10000000000001, 9.6], [79.10000000000001, 9.5]]]}}, {"type": "Feature", "properties": {"kind": "forecast", "hotspot": "palk-bay", "sweeps": 5.61, "rbs10": 0.160002209297916, "rbs10_reformed": 0.2087962506729067, "collapse": 1, "chronic": true}, "geometry": {"type": "Polygon", "coordinates": [[[79.10000000000001, 9.6], [79.2, 9.6], [79.2, 9.7], [79.10000000000001, 9.7], [79.10000000000001, 9.6]]]}}, {"type": "Feature", "properties": {"kind": "forecast", "hotspot": "palk-bay", "sweeps": 3.85, "rbs10": 0.18054051641324556, "rbs10_reformed": 0.2456578735129993, "collapse": 2, "chronic": true}, "geometry": {"type": "Polygon", "coordinates": [[[79.10000000000001, 9.7], [79.2, 9.7], [79.2, 9.799999999999999], [79.10000000000001, 9.799999999999999], [79.10000000000001, 9.7]]]}}, {"type": "Feature", "properties": {"kind": "forecast", "hotspot": "palk-bay", "sweeps": 2.06, "rbs10": 0.29097339410897033, "rbs10_reformed": 0.33693962870770383, "collapse": null, "chronic": true}, "geometry": {"type": "Polygon", "coordinates": [[[79.10000000000001, 9.799999999999999], [79.2, 9.799999999999999], [79.2, 9.899999999999999], [79.10000000000001, 9.899999999999999], [79.10000000000001, 9.799999999999999]]]}}, {"type": "Feature", "properties": {"kind": "forecast", "hotspot": "palk-bay", "sweeps": 0.86, "rbs10": 0.5175396515966139, "rbs10_reformed": 0.5175396515966139, "collapse": null, "chronic": true}, "geometry": {"type": "Polygon", "coordinates": [[[79.10000000000001, 9.899999999999999], [79.2, 9.899999999999999], [79.2, 9.999999999999998], [79.10000000000001, 9.999999999999998], [79.10000000000001, 9.899999999999999]]]}}, {"type": "Feature", "properties": {"kind": "forecast", "hotspot": "palk-bay", "sweeps": 2.34, "rbs10": 0.3156506395177956, "rbs10_reformed": 0.3156506395177956, "collapse": null, "chronic": true}, "geometry": {"type": "Polygon", "coordinates": [[[79.2, 9.2], [79.3, 9.2], [79.3, 9.299999999999999], [79.2, 9.299999999999999], [79.2, 9.2]]]}}, {"type": "Feature", "properties": {"kind": "forecast", "hotspot": "palk-bay", "sweeps": 4.37, "rbs10": 0.16055746815348945, "rbs10_reformed": 0.23193537168965384, "collapse": 1, "chronic": true}, "geometry": {"type": "Polygon", "coordinates": [[[79.2, 9.299999999999999], [79.3, 9.299999999999999], [79.3, 9.399999999999999], [79.2, 9.399999999999999], [79.2, 9.299999999999999]]]}}, {"type": "Feature", "properties": {"kind": "forecast", "hotspot": "palk-bay", "sweeps": 6.35, "rbs10": 0.16000050962106002, "rbs10_reformed": 0.19927725586617878, "collapse": 1, "chronic": true}, "geometry": {"type": "Polygon", "coordinates": [[[79.2, 9.399999999999999], [79.3, 9.399999999999999], [79.3, 9.499999999999998], [79.2, 9.499999999999998], [79.2, 9.399999999999999]]]}}, {"type": "Feature", "properties": {"kind": "forecast", "hotspot": "palk-bay", "sweeps": 7.2, "rbs10": 0.16000009670035586, "rbs10_reformed": 0.19104478144999032, "collapse": 1, "chronic": true}, "geometry": {"type": "Polygon", "coordinates": [[[79.2, 9.5], [79.3, 9.5], [79.3, 9.6], [79.2, 9.6], [79.2, 9.5]]]}}, {"type": "Feature", "properties": {"kind": "forecast", "hotspot": "palk-bay", "sweeps": 6.35, "rbs10": 0.16000050962106002, "rbs10_reformed": 0.19927725586617845, "collapse": 1, "chronic": true}, "geometry": {"type": "Polygon", "coordinates": [[[79.2, 9.6], [79.3, 9.6], [79.3, 9.7], [79.2, 9.7], [79.2, 9.6]]]}}, {"type": "Feature", "properties": {"kind": "forecast", "hotspot": "palk-bay", "sweeps": 4.37, "rbs10": 0.16002526779339285, "rbs10_reformed": 0.2319353716896529, "collapse": 1, "chronic": true}, "geometry": {"type": "Polygon", "coordinates": [[[79.2, 9.7], [79.3, 9.7], [79.3, 9.799999999999999], [79.2, 9.799999999999999], [79.2, 9.7]]]}}, {"type": "Feature", "properties": {"kind": "forecast", "hotspot": "palk-bay", "sweeps": 2.34, "rbs10": 0.27311000422149356, "rbs10_reformed": 0.3156506395177934, "collapse": null, "chronic": true}, "geometry": {"type": "Polygon", "coordinates": [[[79.2, 9.799999999999999], [79.3, 9.799999999999999], [79.3, 9.899999999999999], [79.2, 9.899999999999999], [79.2, 9.799999999999999]]]}}, {"type": "Feature", "properties": {"kind": "forecast", "hotspot": "palk-bay", "sweeps": 0.97, "rbs10": 0.48979322277409176, "rbs10_reformed": 0.48979322277409176, "collapse": null, "chronic": true}, "geometry": {"type": "Polygon", "coordinates": [[[79.2, 9.899999999999999], [79.3, 9.899999999999999], [79.3, 9.999999999999998], [79.2, 9.999999999999998], [79.2, 9.899999999999999]]]}}, {"type": "Feature", "properties": {"kind": "forecast", "hotspot": "palk-bay", "sweeps": 2.06, "rbs10": 0.33693962870771244, "rbs10_reformed": 0.33693962870771244, "collapse": null, "chronic": true}, "geometry": {"type": "Polygon", "coordinates": [[[79.30000000000001, 9.2], [79.4, 9.2], [79.4, 9.299999999999999], [79.30000000000001, 9.299999999999999], [79.30000000000001, 9.2]]]}}, {"type": "Feature", "properties": {"kind": "forecast", "hotspot": "palk-bay", "sweeps": 3.85, "rbs10": 0.1985457271591945, "rbs10_reformed": 0.24565787351300444, "collapse": 4, "chronic": true}, "geometry": {"type": "Polygon", "coordinates": [[[79.30000000000001, 9.299999999999999], [79.4, 9.299999999999999], [79.4, 9.399999999999999], [79.30000000000001, 9.399999999999999], [79.30000000000001, 9.299999999999999]]]}}, {"type": "Feature", "properties": {"kind": "forecast", "hotspot": "palk-bay", "sweeps": 5.61, "rbs10": 0.160002209297916, "rbs10_reformed": 0.20879625067290994, "collapse": 1, "chronic": true}, "geometry": {"type": "Polygon", "coordinates": [[[79.30000000000001, 9.399999999999999], [79.4, 9.399999999999999], [79.4, 9.499999999999998], [79.30000000000001, 9.499999999999998], [79.30000000000001, 9.399999999999999]]]}}, {"type": "Feature", "properties": {"kind": "forecast", "hotspot": "palk-bay", "sweeps": 6.35, "rbs10": 0.16000050962106002, "rbs10_reformed": 0.19927725586618003, "collapse": 1, "chronic": true}, "geometry": {"type": "Polygon", "coordinates": [[[79.30000000000001, 9.5], [79.4, 9.5], [79.4, 9.6], [79.30000000000001, 9.6], [79.30000000000001, 9.5]]]}}, {"type": "Feature", "properties": {"kind": "forecast", "hotspot": "palk-bay", "sweeps": 5.61, "rbs10": 0.160002209297916, "rbs10_reformed": 0.20879625067290958, "collapse": 1, "chronic": true}, "geometry": {"type": "Polygon", "coordinates": [[[79.30000000000001, 9.6], [79.4, 9.6], [79.4, 9.7], [79.30000000000001, 9.7], [79.30000000000001, 9.6]]]}}, {"type": "Feature", "properties": {"kind": "forecast", "hotspot": "palk-bay", "sweeps": 3.85, "rbs10": 0.1805405164132472, "rbs10_reformed": 0.2456578735130034, "collapse": 2, "chronic": true}, "geometry": {"type": "Polygon", "coordinates": [[[79.30000000000001, 9.7], [79.4, 9.7], [79.4, 9.799999999999999], [79.30000000000001, 9.799999999999999], [79.30000000000001, 9.7]]]}}, {"type": "Feature", "properties": {"kind": "forecast", "hotspot": "palk-bay", "sweeps": 2.06, "rbs10": 0.29097339410897566, "rbs10_reformed": 0.3369396287077102, "collapse": null, "chronic": true}, "geometry": {"type": "Polygon", "coordinates": [[[79.30000000000001, 9.799999999999999], [79.4, 9.799999999999999], [79.4, 9.899999999999999], [79.30000000000001, 9.899999999999999], [79.30000000000001, 9.799999999999999]]]}}, {"type": "Feature", "properties": {"kind": "forecast", "hotspot": "palk-bay", "sweeps": 0.86, "rbs10": 0.517539651596622, "rbs10_reformed": 0.517539651596622, "collapse": null, "chronic": true}, "geometry": {"type": "Polygon", "coordinates": [[[79.30000000000001, 9.899999999999999], [79.4, 9.899999999999999], [79.4, 9.999999999999998], [79.30000000000001, 9.999999999999998], [79.30000000000001, 9.899999999999999]]]}}, {"type": "Feature", "properties": {"kind": "forecast", "hotspot": "palk-bay", "sweeps": 1.42, "rbs10": 0.4089863264384299, "rbs10_reformed": 0.4089863264384299, "collapse": null, "chronic": true}, "geometry": {"type": "Polygon", "coordinates": [[[79.4, 9.2], [79.5, 9.2], [79.5, 9.299999999999999], [79.4, 9.299999999999999], [79.4, 9.2]]]}}, {"type": "Feature", "properties": {"kind": "forecast", "hotspot": "palk-bay", "sweeps": 2.65, "rbs10": 0.295861034170002, "rbs10_reformed": 0.295861034170002, "collapse": null, "chronic": true}, "geometry": {"type": "Polygon", "coordinates": [[[79.4, 9.299999999999999], [79.5, 9.299999999999999], [79.5, 9.399999999999999], [79.4, 9.399999999999999], [79.4, 9.299999999999999]]]}}, {"type": "Feature", "properties": {"kind": "forecast", "hotspot": "palk-bay", "sweeps": 3.85, "rbs10": 0.1805405164132472, "rbs10_reformed": 0.2456578735130034, "collapse": 2, "chronic": true}, "geometry": {"type": "Polygon", "coordinates": [[[79.4, 9.399999999999999], [79.5, 9.399999999999999], [79.5, 9.499999999999998], [79.4, 9.499999999999998], [79.4, 9.399999999999999]]]}}, {"type": "Feature", "properties": {"kind": "forecast", "hotspot": "palk-bay", "sweeps": 4.37, "rbs10": 0.16002526779339285, "rbs10_reformed": 0.23193537168965475, "collapse": 1, "chronic": true}, "geometry": {"type": "Polygon", "coordinates": [[[79.4, 9.5], [79.5, 9.5], [79.5, 9.6], [79.4, 9.6], [79.4, 9.5]]]}}, {"type": "Feature", "properties": {"kind": "forecast", "hotspot": "palk-bay", "sweeps": 3.85, "rbs10": 0.180540516413247, "rbs10_reformed": 0.2456578735130029, "collapse": 2, "chronic": true}, "geometry": {"type": "Polygon", "coordinates": [[[79.4, 9.6], [79.5, 9.6], [79.5, 9.7], [79.4, 9.7], [79.4, 9.6]]]}}, {"type": "Feature", "properties": {"kind": "forecast", "hotspot": "palk-bay", "sweeps": 2.65, "rbs10": 0.2567763347736138, "rbs10_reformed": 0.29586103417000054, "collapse": null, "chronic": true}, "geometry": {"type": "Polygon", "coordinates": [[[79.4, 9.7], [79.5, 9.7], [79.5, 9.799999999999999], [79.4, 9.799999999999999], [79.4, 9.7]]]}}, {"type": "Feature", "properties": {"kind": "forecast", "hotspot": "palk-bay", "sweeps": 1.42, "rbs10": 0.40898632643842714, "rbs10_reformed": 0.40898632643842714, "collapse": null, "chronic": true}, "geometry": {"type": "Polygon", "coordinates": [[[79.4, 9.799999999999999], [79.5, 9.799999999999999], [79.5, 9.899999999999999], [79.4, 9.899999999999999], [79.4, 9.799999999999999]]]}}, {"type": "Feature", "properties": {"kind": "forecast", "hotspot": "palk-bay", "sweeps": 0.59, "rbs10": 0.5992438731674504, "rbs10_reformed": 0.5992438731674504, "collapse": null, "chronic": false}, "geometry": {"type": "Polygon", "coordinates": [[[79.4, 9.899999999999999], [79.5, 9.899999999999999], [79.5, 9.999999999999998], [79.4, 9.999999999999998], [79.4, 9.899999999999999]]]}}, {"type": "Feature", "properties": {"kind": "forecast", "hotspot": "palk-bay", "sweeps": 0.76, "rbs10": 0.5452148715679452, "rbs10_reformed": 0.5452148715679452, "collapse": null, "chronic": false}, "geometry": {"type": "Polygon", "coordinates": [[[79.5, 9.2], [79.6, 9.2], [79.6, 9.299999999999999], [79.5, 9.299999999999999], [79.5, 9.2]]]}}, {"type": "Feature", "properties": {"kind": "forecast", "hotspot": "palk-bay", "sweeps": 1.42, "rbs10": 0.4089863264384227, "rbs10_reformed": 0.4089863264384227, "collapse": null, "chronic": true}, "geometry": {"type": "Polygon", "coordinates": [[[79.5, 9.299999999999999], [79.6, 9.299999999999999], [79.6, 9.399999999999999], [79.5, 9.399999999999999], [79.5, 9.299999999999999]]]}}, {"type": "Feature", "properties": {"kind": "forecast", "hotspot": "palk-bay", "sweeps": 2.06, "rbs10": 0.29097339410897105, "rbs10_reformed": 0.33693962870770466, "collapse": null, "chronic": true}, "geometry": {"type": "Polygon", "coordinates": [[[79.5, 9.399999999999999], [79.6, 9.399999999999999], [79.6, 9.499999999999998], [79.5, 9.499999999999998], [79.5, 9.399999999999999]]]}}, {"type": "Feature", "properties": {"kind": "forecast", "hotspot": "palk-bay", "sweeps": 2.34, "rbs10": 0.2731100042214918, "rbs10_reformed": 0.3156506395177912, "collapse": null, "chronic": true}, "geometry": {"type": "Polygon", "coordinates": [[[79.5, 9.5], [79.6, 9.5], [79.6, 9.6], [79.5, 9.6], [79.5, 9.5]]]}}, {"type": "Feature", "properties": {"kind": "forecast", "hotspot": "palk-bay", "sweeps": 2.06, "rbs10": 0.2909733941089704, "rbs10_reformed": 0.33693962870770394, "collapse": null, "chronic": true}, "geometry": {"type": "Polygon", "coordinates": [[[79.5, 9.6], [79.6, 9.6], [79.6, 9.7], [79.5, 9.7], [79.5, 9.6]]]}}, {"type": "Feature", "properties": {"kind": "forecast", "hotspot": "palk-bay", "sweeps": 1.42, "rbs10": 0.4089863264384209, "rbs10_reformed": 0.4089863264384209, "collapse": null, "chronic": true}, "geometry": {"type": "Polygon", "coordinates": [[[79.5, 9.7], [79.6, 9.7], [79.6, 9.799999999999999], [79.5, 9.799999999999999], [79.5, 9.7]]]}}, {"type": "Feature", "properties": {"kind": "forecast", "hotspot": "palk-bay", "sweeps": 0.76, "rbs10": 0.5452148715679423, "rbs10_reformed": 0.5452148715679423, "collapse": null, "chronic": false}, "geometry": {"type": "Polygon", "coordinates": [[[79.5, 9.799999999999999], [79.6, 9.799999999999999], [79.6, 9.899999999999999], [79.5, 9.899999999999999], [79.5, 9.799999999999999]]]}}, {"type": "Feature", "properties": {"kind": "forecast", "hotspot": "palk-bay", "sweeps": 0.32, "rbs10": 0.7168010086916238, "rbs10_reformed": 0.7168010086916238, "collapse": null, "chronic": false}, "geometry": {"type": "Polygon", "coordinates": [[[79.5, 9.899999999999999], [79.6, 9.899999999999999], [79.6, 9.999999999999998], [79.5, 9.999999999999998], [79.5, 9.899999999999999]]]}}, {"type": "Feature", "properties": {"kind": "forecast", "hotspot": "palk-bay", "sweeps": 0.32, "rbs10": 0.7168010086916395, "rbs10_reformed": 0.7168010086916395, "collapse": null, "chronic": false}, "geometry": {"type": "Polygon", "coordinates": [[[79.60000000000001, 9.2], [79.7, 9.2], [79.7, 9.299999999999999], [79.60000000000001, 9.299999999999999], [79.60000000000001, 9.2]]]}}, {"type": "Feature", "properties": {"kind": "forecast", "hotspot": "palk-bay", "sweeps": 0.59, "rbs10": 0.5992438731674635, "rbs10_reformed": 0.5992438731674635, "collapse": null, "chronic": false}, "geometry": {"type": "Polygon", "coordinates": [[[79.60000000000001, 9.299999999999999], [79.7, 9.299999999999999], [79.7, 9.399999999999999], [79.60000000000001, 9.399999999999999], [79.60000000000001, 9.299999999999999]]]}}, {"type": "Feature", "properties": {"kind": "forecast", "hotspot": "palk-bay", "sweeps": 0.86, "rbs10": 0.5175396515966336, "rbs10_reformed": 0.5175396515966336, "collapse": null, "chronic": true}, "geometry": {"type": "Polygon", "coordinates": [[[79.60000000000001, 9.399999999999999], [79.7, 9.399999999999999], [79.7, 9.499999999999998], [79.60000000000001, 9.499999999999998], [79.60000000000001, 9.399999999999999]]]}}, {"type": "Feature", "properties": {"kind": "forecast", "hotspot": "palk-bay", "sweeps": 0.97, "rbs10": 0.4897932227741075, "rbs10_reformed": 0.4897932227741075, "collapse": null, "chronic": true}, "geometry": {"type": "Polygon", "coordinates": [[[79.60000000000001, 9.5], [79.7, 9.5], [79.7, 9.6], [79.60000000000001, 9.6], [79.60000000000001, 9.5]]]}}, {"type": "Feature", "properties": {"kind": "forecast", "hotspot": "palk-bay", "sweeps": 0.86, "rbs10": 0.5175396515966326, "rbs10_reformed": 0.5175396515966326, "collapse": null, "chronic": true}, "geometry": {"type": "Polygon", "coordinates": [[[79.60000000000001, 9.6], [79.7, 9.6], [79.7, 9.7], [79.60000000000001, 9.7], [79.60000000000001, 9.6]]]}}, {"type": "Feature", "properties": {"kind": "forecast", "hotspot": "palk-bay", "sweeps": 0.59, "rbs10": 0.5992438731674615, "rbs10_reformed": 0.5992438731674615, "collapse": null, "chronic": false}, "geometry": {"type": "Polygon", "coordinates": [[[79.60000000000001, 9.7], [79.7, 9.7], [79.7, 9.799999999999999], [79.60000000000001, 9.799999999999999], [79.60000000000001, 9.7]]]}}, {"type": "Feature", "properties": {"kind": "forecast", "hotspot": "palk-bay", "sweeps": 0.32, "rbs10": 0.7168010086916372, "rbs10_reformed": 0.7168010086916372, "collapse": null, "chronic": false}, "geometry": {"type": "Polygon", "coordinates": [[[79.60000000000001, 9.799999999999999], [79.7, 9.799999999999999], [79.7, 9.899999999999999], [79.60000000000001, 9.899999999999999], [79.60000000000001, 9.799999999999999]]]}}, {"type": "Feature", "properties": {"kind": "forecast", "hotspot": "palk-bay", "sweeps": 0.3, "rbs10": 0.7252565687216491, "rbs10_reformed": 0.7252565687216491, "collapse": null, "chronic": false}, "geometry": {"type": "Polygon", "coordinates": [[[79.60000000000001, 9.899999999999999], [79.7, 9.899999999999999], [79.7, 9.999999999999998], [79.60000000000001, 9.999999999999998], [79.60000000000001, 9.899999999999999]]]}}]}