{"type": "FeatureCollection", "name": "unep-wcmc-seagrass-points-palk", "features": [{"type": "Feature", "properties": {"source": "UNEP-WCMC seagrass v7.1 points", "id": 573}, "geometry": {"type": "Point", "coordinates": [79.2499839518945, 9.499982625030812]}}, {"type": "Feature", "properties": {"source": "UNEP-WCMC seagrass v7.1 points", "id": 574}, "geometry": {"type": "Point", "coordinates": [79.2499839518945, 9.499982625030812]}}, {"type": "Feature", "properties": {"source": "UNEP-WCMC seagrass v7.1 points", "id": 575}, "geometry": {"type": "Point", "coordinates": [79.2499839518945, 9.499982625030812]}}, {"type": "Feature", "properties": {"source": "UNEP-WCMC seagrass v7.1 points", "id": 576}, "geometry": {"type": "Point", "coordinates": [79.2499839518945, 9.499982625030812]}}, {"type": "Feature", "properties": {"source": "UNEP-WCMC seagrass v7.1 points", "id": 577}, "geometry": {"type": "Point", "coordinates": [79.2499839518945, 9.499982625030812]}}, {"type": "Feature", "properties": {"source": "UNEP-WCMC seagrass v7.1 points", "id": 578}, "geometry": {"type": "Point", "coordinates": [79.2499839518945, 9.499982625030812]}}, {"type": "Feature", "properties": {"source": "UNEP-WCMC seagrass v7.1 points", "id": 579}, "geometry": {"type": "Point", "coordinates": [79.2499839518945, 9.499982625030812]}}, {"type": "Feature", "properties": {"source": "UNEP-WCMC seagrass v7.1 points", "id": 580}, "geometry": {"type": "Point", "coordinates": [79.61668250853639, 9.066653299020846]}}, {"type": "Feature", "properties": {"source": "UNEP-WCMC seagrass v7.1 points", "id": 581}, "geometry": {"type": "Point", "coordinates": [79.78331788808953, 8.11668145158333]}}, {"type": "Feature", "properties": {"source": "UNEP-WCMC seagrass v7.1 points", "id": 582}, "geometry": {"type": "Point", "coordinates": [79.8333471737098, 9.583322797937642]}}, {"type": "Feature", "properties": {"source": "UNEP-WCMC seagrass v7.1 points", "id": 583}, "geometry": {"type": "Point", "coordinates": [81.400011114204, 8.14998334730138]}}, {"type": "Feature", "properties": {"source": "UNEP-WCMC seagrass v7.1 points", "id": 584}, "geometry": {"type": "Point", "coordinates": [81.43334898139649, 8.06665216839948]}}, {"type": "Feature", "properties": {"source": "UNEP-WCMC seagrass v7.1 points", "id": 866}, "geometry": {"type": "Point", "coordinates": [78.40090704427978, 8.861733780787375]}}, {"type": "Feature", "properties": {"source": "UNEP-WCMC seagrass v7.1 points", "id": 4154}, "geometry": {"type": "Point", "coordinates": [78.13332276691979, 8.78332189320203]}}, {"type": "Feature", "properties": {"source": "UNEP-WCMC seagrass v7.1 points", "id": 4155}, "geometry": {"type": "Point", "coordinates": [79.19999064020811, 9.283317962371619]}}, {"type": "Feature", "properties": {"source": "UNEP-WCMC seagrass v7.1 points", "id": 4156}, "geometry": {"type": "Point", "coordinates": [79.21668205683929, 9.249989087053708]}}, {"type": "Feature", "properties": {"source": "UNEP-WCMC seagrass v7.1 points", "id": 4157}, "geometry": {"type": "Point", "coordinates": [78.13332276691979, 8.78332189320203]}}, {"type": "Feature", "properties": {"source": "UNEP-WCMC seagrass v7.1 points", "id": 4158}, "geometry": {"type": "Point", "coordinates": [79.19999064020811, 9.283317962371619]}}, {"type": "Feature", "properties": {"source": "UNEP-WCMC seagrass v7.1 points", "id": 4159}, "geometry": {"type": "Point", "coordinates": [79.21668205683929, 9.249989087053708]}}, {"type": "Feature", "properties": {"source": "UNEP-WCMC seagrass v7.1 points", "id": 4160}, "geometry": {"type": "Point", "coordinates": [78.13332276691979, 8.78332189320203]}}, {"type": "Feature", "properties": {"source": "UNEP-WCMC seagrass v7.1 points", "id": 4161}, "geometry": {"type": "Point", "coordinates": [78.19998951006706, 8.749984026356675]}}, {"type": "Feature", "properties": {"source": "UNEP-WCMC seagrass v7.1 points", "id": 4162}, "geometry": {"type": "Point", "coordinates": [79.19999064020811, 9.283317962371619]}}, {"type": "Feature", "properties": {"source": "UNEP-WCMC seagrass v7.1 points", "id": 4163}, "geometry": {"type": "Point", "coordinates": [79.19999064020811, 9.283317962371619]}}, {"type": "Feature", "properties": {"source": "UNEP-WCMC seagrass v7.1 points", "id": 4164}, "geometry": {"type": "Point", "coordinates": [79.21668205683929, 9.249989087053708]}}, {"type": "Feature", "properties": {"source": "UNEP-WCMC seagrass v7.1 points", "id": 4168}, "geometry": {"type": "Point", "coordinates": [78.13332276691979, 8.78332189320203]}}, {"type": "Feature", "properties": {"source": "UNEP-WCMC seagrass v7.1 points", "id": 4169}, "geometry": {"type": "Point", "coordinates": [78.19998951006706, 8.749984026356675]}}, {"type": "Feature", "properties": {"source": "UNEP-WCMC seagrass v7.1 points", "id": 4170}, "geometry": {"type": "Point", "coordinates": [79.19999064020811, 9.283317962371619]}}, {"type": "Feature", "properties": {"source": "UNEP-WCMC seagrass v7.1 points", "id": 4171}, "geometry": {"type": "Point", "coordinates": [79.21668205683929, 9.249989087053708]}}, {"type": "Feature", "properties": {"source": "UNEP-WCMC seagrass v7.1 points", "id": 4181}, "geometry": {"type": "Point", "coordinates": [79.19999064020811, 9.283317962371619]}}, {"type": "Feature", "properties": {"source": "UNEP-WCMC seagrass v7.1 points", "id": 4182}, "geometry": {"type": "Point", "coordinates": [79.19999064020811, 9.283317962371619]}}, {"type": "Feature", "properties": {"source": "UNEP-WCMC seagrass v7.1 points", "id": 6207}, "geometry": {"type": "Point", "coordinates": [80.6666499721592, 9.416678425998246]}}, {"type": "Feature", "properties": {"source": "UNEP-WCMC seagrass v7.1 points", "id": 6208}, "geometry": {"type": "Point", "coordinates": [81.14998160363349, 8.724982872661482]}}, {"type": "Feature", "properties": {"source": "UNEP-WCMC seagrass v7.1 points", "id": 6209}, "geometry": {"type": "Point", "coordinates": [80.85832247576081, 9.116682582708407]}}, {"type": "Feature", "properties": {"source": "UNEP-WCMC seagrass v7.1 points", "id": 7201}, "geometry": {"type": "Point", "coordinates": [79.90665091092464, 8.712851018955908]}}, {"type": "Feature", "properties": {"source": "UNEP-WCMC seagrass v7.1 points", "id": 8970}, "geometry": {"type": "Point", "coordinates": [79.34509625006037, 10.007955679407006]}}]}