{"type": "FeatureCollection", "name": "unep-wcmc-seagrass-palk-mannar", "features": [{"type": "Feature", "properties": {"source": "UNEP-WCMC seagrass v7.1", "id": 5020}, "geometry": {"type": "Polygon", "coordinates": [[[80.0126000391137, 9.17603783734251], [80.02909360539682, 9.194761722407383], [80.03804185958755, 9.211264280684025], [80.01254608000956, 9.211318240055476], [80.00854409619856, 9.209321745804603], [80.00798651639329, 9.202765688581417], [80.0074019574851, 9.197045999888337], [80.0091286560051, 9.194761722407383], [80.01168273074956, 9.194204141450228], [80.0148213653005, 9.193898371847624], [80.0168178602397, 9.192486438080069], [80.01854455786136, 9.191344298442333], [80.02054105190223, 9.189626593613164], [80.02037917458969, 9.187926873419265], [80.0155408224183, 9.186209168865874], [80.01212339931217, 9.18506702938251], [80.01040569382648, 9.182485976040523], [80.01212339931217, 9.177926412166396], [80.0126000391137, 9.17603783734251]]]}}, {"type": "Feature", "properties": {"source": "UNEP-WCMC seagrass v7.1", "id": 5021}, "geometry": {"type": "Polygon", "coordinates": [[[80.03804185958755, 9.211264280684025], [80.01726752093829, 9.147987982830474], [79.98101584954418, 9.121431003531843], [79.95290304308325, 9.104038114652374], [79.93748866337515, 9.12314870798208], [79.9349345886307, 9.159094609996643], [79.92409775770916, 9.163096592606195], [79.90440260653324, 9.168510511799454], [79.90381804672671, 9.149399918040386], [79.8755703411579, 9.140262806700797], [79.84434588104553, 9.129434967931394], [79.79382196955511, 9.108597677691554], [79.73090539986826, 9.11943450765269], [79.69440191902187, 9.120567654877592], [79.66699058450845, 9.12429084682791], [79.65760166175511, 9.13084690485585], [79.63418331532338, 9.12087342371087], [79.60607050976074, 9.098597216695522], [79.57326324237233, 9.112320871170853], [79.5450155359052, 9.146261285281279], [79.51335040812855, 9.15281734244789], [79.46654069616467, 9.17592991759057], [79.42375994711465, 9.181065047128888], [79.41096259428947, 9.177791515185033], [79.4136245881406, 9.161684657695702], [79.4438777816829, 9.123427497997671], [79.48137051696455, 9.095179792651797], [79.51762218835869, 9.072067217255904], [79.55787584176714, 9.049817989908421], [79.59423543136961, 9.038990153943159], [79.62934496225365, 9.043540722140436], [79.67412220624281, 9.05468332177915], [79.7130718436253, 9.065511159861083], [79.74190410900064, 9.056958606976487], [79.77670787042992, 9.038126803690512], [79.80581892436045, 9.01871044173734], [79.81937170733896, 8.994176935410023], [79.84334763267763, 8.977350621668489], [79.8239312709552, 8.977350621668489], [79.79254493173372, 8.96934665528487], [79.80851689124711, 8.956792119556823], [79.81323833217586, 8.93253740408386], [79.78499062750534, 8.926844695452358], [79.76301119710585, 8.889459878881357], [79.78612377318451, 8.877759698563354], [79.77870436536911, 8.874621065807226], [79.74904472466763, 8.894010448664307], [79.72762287497173, 8.902877764026734], [79.73962882370967, 8.88859652993354], [79.7715727418381, 8.863208669154796], [79.7936780774129, 8.83637290021836], [79.82107142765433, 8.805292330567067], [79.82906640044534, 8.830401400821586], [79.84503835906041, 8.840374883519809], [79.85018248158485, 8.819537591811955], [79.8695988442056, 8.820985500026527], [79.85759289367104, 8.806434468945863], [79.85418446449752, 8.787018106799785], [79.87557034205618, 8.759624758169116], [79.85531761017667, 8.763905531542374], [79.8323489253419, 8.793870941084602], [79.82579286678649, 8.785875968008712], [79.86546196128674, 8.735648831497826], [79.87843018625537, 8.711403110183987], [79.87815139500525, 8.679459191522042], [79.87929353461703, 8.63979009713234], [79.9445933078032, 8.63490677847659], [79.94945863997584, 8.710539761346128], [79.93723685392291, 8.798907144743524], [79.92534781642759, 8.805732997576808], [79.91898960911855, 8.818764174511472], [79.92835155097235, 8.885988496557466], [79.91795538861344, 8.91285124525539], [79.89067895141126, 8.957934258180458], [79.83901290120733, 9.014573559319983], [79.70040039687372, 9.080511850961177], [79.72523967147238, 9.103237718769119], [79.81895801877758, 9.090044664308236], [79.91968208713344, 9.011542845605895], [79.95331673074631, 9.001011784378386], [79.99898430489505, 9.00759482002089], [80.04565012471672, 9.039538738482765], [80.0750399681007, 9.086456370166644], [80.07587633735949, 9.101511020136792], [80.08932120212964, 9.137097192310764], [80.10731663568511, 9.180462500272787], [80.03804185958755, 9.211264280684025]], [[79.88490530480705, 8.951234309040627], [79.88579563316998, 8.951072430540993], [79.89082284265517, 8.945037979707044], [79.89389852506766, 8.941071969373656], [79.8974058803135, 8.935073491847044], [79.90862941979518, 8.923652102213492], [79.92368407004608, 8.900458587351276], [79.92300957809984, 8.897346933070327], [79.91782049130217, 8.90198743405124], [79.91082376508243, 8.914209220915293], [79.8880439384597, 8.943122425485694], [79.88490530480705, 8.951234309040627]], [[79.89459999611682, 8.732573151545377], [79.89393449810318, 8.729956123805948], [79.89264846724753, 8.729488475686393], [79.89087680265763, 8.728346337796856], [79.8888982937871, 8.728517208398854], [79.88531899247012, 8.730459744885346], [79.88240518826848, 8.732240401328006], [79.8804626542301, 8.734039046081424], [79.87784562734718, 8.736961843061904], [79.87590309151219, 8.738094987782475], [79.87640671131497, 8.739237126894439], [79.87720710753817, 8.741350534414275], [79.87784562734718, 8.743293069746699], [79.87834924714997, 8.74590110384944], [79.87932051551661, 8.746710492387646], [79.88112815224372, 8.745406476457275], [79.88240518916678, 8.742654551224682], [79.88417685375666, 8.740676042670161], [79.88518409426051, 8.737600361570511], [79.88728850740806, 8.736790970113013], [79.88940191448819, 8.73599057481259], [79.89167719977914, 8.735010314086624], [79.89299020883948, 8.733706296283936], [79.89459999611682, 8.732573151545377]], [[79.6889880009766, 9.074990014057473], [79.69845786193702, 9.075511621093979], [79.69926725119453, 9.07340720650528], [79.68832250206465, 9.071015010717478], [79.68559755607507, 9.072930565839473], [79.6889880009766, 9.074990014057473]]]}}, {"type": "Feature", "properties": {"source": "UNEP-WCMC seagrass v7.1", "id": 17526}, "geometry": {"type": "Polygon", "coordinates": [[[80.9587947337661, 8.981370589443394], [80.95770655415679, 8.980956901892235], [80.9562046859861, 8.980597173434624], [80.95343477392663, 8.979931675113273], [80.95270632287624, 8.979733823857591], [80.95098861739055, 8.978906448097282], [80.95012526813055, 8.977926187036264], [80.94971158046748, 8.976379352872767], [80.94951372922108, 8.975848753274182], [80.94928889887177, 8.9748774840062], [80.9500173499222, 8.973879238513202], [80.95089868704744, 8.972961929997998], [80.9525984046679, 8.971621939472165], [80.9538484615897, 8.970929461488444], [80.95446000049915, 8.970929461488444], [80.95464885781291, 8.971621939472165], [80.9547657708522, 8.972539248712815], [80.95507153940862, 8.973573467195413], [80.95576401832177, 8.974931444414805], [80.95648347543957, 8.976208482005589], [80.9575176959447, 8.977512499104572], [80.95803930181613, 8.978070078457316], [80.95884869287028, 8.978654638210099], [80.9595141908839, 8.978960407019168], [80.96020666800042, 8.979571945638444], [80.96056639745764, 8.980039593531226], [80.96065632959736, 8.980651132992227], [80.96071028870153, 8.98101086139629], [80.96056639655934, 8.981595420844327], [80.96004479068795, 8.981847231350967], [80.9587947337661, 8.981370589443394]]]}}, {"type": "Feature", "properties": {"source": "UNEP-WCMC seagrass v7.1", "id": 17542}, "geometry": {"type": "Polygon", "coordinates": [[[80.96362409200489, 8.977458539967246], [80.96134880851056, 8.974823526251512], [80.95895661107862, 8.972287437954975], [80.95806628271569, 8.971541001223612], [80.95718494648875, 8.96990423476406], [80.95629461812582, 8.96837538636082], [80.95604280777528, 8.96712533082824], [80.9557909965264, 8.964984943158495], [80.9557909965264, 8.96232294959358], [80.95668132578763, 8.959678942715314], [80.95806628181737, 8.956513330065668], [80.95806628271569, 8.954759651965865], [80.95806628181737, 8.954624752754068], [80.9575716550489, 8.95376140442235], [80.95693313523988, 8.95337469605747], [80.9557909965264, 8.952736177169129], [80.95339879999277, 8.952124637726078], [80.95201384486136, 8.951234309040627], [80.95037707937942, 8.94984935301884], [80.94934285797595, 8.948707213850057], [80.94770609249397, 8.9465668286565], [80.94620422522163, 8.944930062427195], [80.9449271865019, 8.94304148532811], [80.94418074938288, 8.941125930364162], [80.943821020824, 8.939731980210817], [80.94418074938288, 8.938481922942875], [80.94418074938288, 8.937987295867163], [80.94632113646428, 8.938239106421397], [80.94859642085693, 8.940010770135864], [80.95137532684899, 8.943545106372508], [80.95376752248428, 8.946315017649482], [80.95540428886456, 8.94770896744443], [80.9569331361382, 8.9479607765995], [80.9589566101803, 8.947322257969955], [80.96248195239308, 8.946315017649482], [80.964127712706, 8.946180118855764], [80.96437052912391, 8.946818637714486], [80.9653777696278, 8.948959024976473], [80.96537776872951, 8.951989740198945], [80.96498206893169, 8.955155353192154], [80.96462234037278, 8.959678942715314], [80.964127712706, 8.96434642425873], [80.96373201111156, 8.967377138955774], [80.96437053002224, 8.96965242395266], [80.96423563091435, 8.972431329838006], [80.9641277136043, 8.974823526251512], [80.964127712706, 8.976460292703889], [80.9639838214621, 8.977350621668489], [80.96362409200489, 8.977458539967246]]]}}, {"type": "Feature", "properties": {"source": "UNEP-WCMC seagrass v7.1", "id": 17543}, "geometry": {"type": "Polygon", "coordinates": [[[80.94359619137298, 8.932321567409844], [80.94331740102122, 8.931871906522368], [80.94343431316217, 8.931656068566932], [80.94356921137175, 8.931323319577318], [80.94359619137298, 8.930594869417483], [80.94356921047343, 8.92976749187722], [80.9435152531659, 8.92895810242262], [80.94312854280913, 8.928427502857723], [80.94221123444495, 8.92814871294648], [80.9408712444851, 8.928292604540196], [80.93926145810607, 8.928652333276094], [80.93837112974312, 8.929039042158847], [80.93731892316937, 8.929569641721388], [80.9359609471409, 8.930037289146082], [80.93484578663202, 8.930513930026603], [80.93415330861716, 8.931044530105183], [80.93387452006198, 8.931152447948792], [80.93359573060852, 8.93084667886748], [80.9339284800645, 8.93048695052143], [80.93451303807437, 8.930037289146082], [80.9354843055427, 8.929596621294435], [80.93676134246577, 8.929066020883713], [80.9374897935162, 8.928706291668432], [80.93859595919415, 8.928238645199203], [80.9400168891577, 8.927708045475011], [80.94096117752314, 8.927429255901224], [80.94221123444495, 8.927204424728897], [80.94348827136803, 8.927402274393016], [80.94464839704844, 8.92814871294648], [80.94534986989423, 8.928931123689788], [80.94584449576442, 8.929596621294435], [80.94620422522163, 8.9302081604098], [80.94593442790413, 8.931206407746018], [80.94515201685122, 8.93184492534285], [80.94359619137298, 8.932321567409844]]]}}, {"type": "Feature", "properties": {"source": "UNEP-WCMC seagrass v7.1", "id": 17544}, "geometry": {"type": "Polygon", "coordinates": [[[80.92864945933044, 8.924371559608417], [80.92915307913323, 8.925010079409613], [80.9292879764445, 8.925792488898384], [80.92937790948254, 8.926431007987532], [80.92920703733908, 8.927204424728897], [80.92912609823368, 8.927681065762275], [80.92901818092366, 8.928517435041694], [80.92795698041728, 8.929677560888935], [80.92596048637643, 8.931790967414962], [80.92290279093085, 8.935676038495263], [80.92165273221241, 8.937016028378943], [80.9207084447453, 8.937096967213328], [80.9204026761889, 8.936845156757094], [80.92070844564363, 8.93562207935972], [80.92234521112557, 8.933904374113185], [80.92276789182296, 8.933427733228491], [80.92398197660755, 8.932096735704304], [80.92548384567657, 8.9305409086423], [80.9260414245835, 8.929677560888935], [80.92626625403453, 8.928517435041694], [80.92642813224533, 8.927573146891348], [80.92642813224533, 8.926790736784596], [80.92657202438755, 8.92584644771381], [80.92695873204936, 8.924983099497345], [80.92751631275296, 8.924290621498853], [80.9279030204148, 8.924209682483838], [80.92864945933044, 8.924371559608417]]]}}, {"type": "Feature", "properties": {"source": "UNEP-WCMC seagrass v7.1", "id": 17545}, "geometry": {"type": "Polygon", "coordinates": [[[80.91562727615596, 8.940208620835062], [80.91762377019683, 8.939543123085434], [80.91812739089795, 8.939597081640272], [80.91782162054488, 8.940127680917252], [80.91770470930224, 8.940487411282687], [80.91721008253376, 8.941206869172749], [80.91698525128615, 8.942151157493063], [80.91657156452138, 8.942870613870847], [80.91642767237917, 8.943626045530749], [80.91621183506417, 8.944066713275161], [80.91587908560821, 8.945289791597519], [80.9157351943643, 8.94607220191453], [80.91512365545485, 8.94643192995611], [80.9149347981411, 8.94626105742811], [80.91496177634573, 8.945676497907252], [80.91517761455903, 8.944957041750135], [80.9154564040125, 8.944039733886207], [80.9155373431179, 8.943212356705219], [80.91560029615474, 8.942349007916787], [80.9154564031142, 8.941350760047749], [80.91540244580665, 8.941044990650214], [80.91540244490834, 8.940928079275894], [80.91562727615596, 8.940208620835062]]]}}, {"type": "Feature", "properties": {"source": "UNEP-WCMC seagrass v7.1", "id": 17546}, "geometry": {"type": "Polygon", "coordinates": [[[80.91090583522721, 8.948014736568883], [80.91137348199443, 8.947735947448772], [80.91165227234623, 8.948293525475401], [80.91185012269429, 8.948761173708744], [80.9119310617997, 8.94912090264172], [80.91193106269805, 8.950460891850257], [80.91185012359263, 8.951764908213807], [80.91165227234623, 8.953626505727572], [80.91137348199443, 8.955874810477338], [80.91157133413915, 8.956819098887395], [80.91223683125443, 8.95804217603908], [80.91295629016886, 8.958707675447506], [80.91448513654417, 8.959265254399257], [80.91570821436308, 8.959624983589364], [80.91598700381655, 8.96029048187414], [80.91765075019808, 8.960848061946757], [80.91907167926335, 8.961315709118468], [80.92076240384948, 8.961315709118468], [80.92234521022728, 8.961045913736452], [80.92318158128263, 8.961045913736452], [80.92459351641531, 8.960955980714774], [80.92542988567408, 8.960955980714774], [80.9267608817013, 8.960767122184183], [80.9273184624049, 8.960767122184183], [80.9289012687827, 8.960848061946757], [80.92901818182197, 8.9615944993625], [80.92973763804143, 8.961990200246497], [80.9292879764445, 8.96215207832135], [80.92787604221017, 8.962349930288278], [80.92151783579943, 8.963015427131385], [80.91626579416835, 8.966010170464005], [80.9108159030875, 8.96404065467218], [80.9080100179925, 8.959544044441731], [80.90892732545835, 8.955434142837262], [80.90979067561665, 8.953176845416653], [80.91090583522721, 8.948014736568883]]]}}, {"type": "Feature", "properties": {"source": "UNEP-WCMC seagrass v7.1", "id": 17547}, "geometry": {"type": "Polygon", "coordinates": [[[80.93340687149814, 8.968348406113803], [80.93359573060852, 8.96901390616194], [80.93320902115008, 8.969931214008135], [80.93198594243287, 8.970039132739053], [80.92992649625351, 8.970875502259368], [80.9271206111585, 8.97126221151731], [80.92479136676336, 8.972098579993766], [80.92356828984278, 8.973321658929919], [80.9233704376981, 8.97426594545747], [80.92310064217723, 8.975291173168577], [80.92318158128263, 8.976406333410017], [80.9233704376981, 8.976406333410017], [80.92346036983781, 8.976406333410017], [80.92448559820697, 8.976873980061136], [80.92534894746697, 8.977071831102547], [80.92581659333588, 8.977152769891859], [80.92748933275173, 8.977818267989376], [80.92862247932922, 8.979212218468664], [80.9298455571481, 8.98101086139629], [80.93020528570699, 8.982791518749238], [80.9301243474999, 8.984572177114543], [80.92901818092366, 8.986433773207441], [80.92748933275173, 8.987737789901324], [80.92601444548058, 8.989428516627347], [80.92590652547561, 8.9916768213835], [80.92609538368768, 8.992540170008237], [80.9267608817013, 8.994761496681344], [80.92693175294643, 8.995067266092951], [80.92795698041728, 8.996740003929153], [80.92787604221017, 8.998628579343933], [80.92693175384476, 9.002261841026463], [80.92515109622057, 9.004627058088365], [80.92023180404543, 9.007037240886358], [80.91973717637866, 9.00745992272343], [80.91709316949448, 9.007765691160007], [80.91443117654168, 9.007037240886358], [80.91328903692988, 9.006092952854113], [80.91078892308624, 9.005319536425178], [80.90804599102802, 9.004294308539434], [80.90659808285983, 9.003430959568195], [80.90498829558248, 9.002567611197446], [80.9037921968665, 9.002099962230641], [80.90059960410969, 9.00460007876633], [80.89726311921063, 9.00745992272343], [80.89429535590482, 9.011039224041184], [80.89273953042657, 9.01343142088606], [80.89309925898549, 9.013899068499615], [80.89392663520992, 9.014123898321543], [80.89465508536203, 9.01509516697377], [80.89585118407801, 9.016291265035292], [80.89701130975843, 9.017955010367913], [80.89762284866785, 9.019843586714519], [80.89773976080883, 9.022127864647377], [80.89701131065672, 9.024151338660436], [80.89690339065176, 9.024151338660436], [80.89606702139302, 9.026066894899008], [80.89631883174356, 9.027739633826332], [80.89690339065176, 9.028315199736458], [80.89787465901843, 9.029403380489505], [80.89917867594271, 9.030122837519075], [80.90037477376036, 9.030707397405505], [80.90142698033415, 9.030707397405505], [80.90312669975121, 9.0303476678791], [80.90479044523443, 9.02976310918375], [80.90776720157456, 9.028099363293185], [80.9119310617997, 9.026066894899008], [80.91290233016638, 9.02473589935431], [80.91373869852681, 9.023072153340847], [80.91526754669876, 9.019735668636503], [80.91682337397363, 9.017712193820277], [80.91898174712364, 9.015679725477664], [80.92326251948975, 9.012711963406508], [80.92851456022255, 9.008404211620686], [80.9307898446152, 9.00756784092031], [80.93282231348823, 9.003296061604333], [80.93723798406396, 8.998044021657186], [80.94162667553675, 8.994203916396685], [80.94854246175275, 8.987656850813739], [80.95184297361622, 8.9855164653986], [80.95387544069263, 8.984788013816981], [80.95601582777402, 8.984680095038188], [80.95684320399849, 8.98526465477947], [80.9575716550489, 8.985984111832753], [80.95790440450483, 8.98718021122371], [80.95790440450483, 8.98735108224292], [80.9541272519415, 8.985957132895578], [80.94106909573148, 8.997846169647804], [80.9320129224341, 9.010760433689777], [80.92081636385197, 9.020545057871125], [80.90159785157928, 9.042794285276889], [80.89637279084772, 9.043486763104088], [80.89251469917896, 9.039376860437352], [80.89220892972423, 9.033738111620748], [80.88012204188085, 9.026372665322324], [80.87881802495657, 9.023683691907516], [80.87957345510989, 9.017901051050632], [80.88662414043378, 9.010184868178978], [80.89804553026356, 9.001011784378386], [80.90359434651843, 8.997990062029], [80.90371125865941, 8.998044021657186], [80.90479044523443, 8.998628579343933], [80.90501527558374, 8.999815685435875], [80.90526708593428, 9.00042722433168], [80.90557285538901, 9.001236613344261], [80.90690385231456, 9.00190211155227], [80.9083157865489, 9.002378753050722], [80.91070798398083, 9.003125190127188], [80.91310018051442, 9.004294308539434], [80.91576217436557, 9.006650533445237], [80.91826228910752, 9.00654261408724], [80.91943140872057, 9.006290803901097], [80.92057354653573, 9.006038994426776], [80.92076240384948, 9.006038994426776], [80.92101421420001, 9.00587711643472], [80.92234521112557, 9.00460007876633], [80.92290279093085, 9.003592838655457], [80.92356828984278, 9.002765462399019], [80.92417982875223, 9.001704261652906], [80.92453955731115, 9.00110171633641], [80.92492626497297, 9.000822926306482], [80.92596048637643, 8.99829583048728], [80.92581659423422, 8.998124961084402], [80.92570867602585, 8.997261611584289], [80.92534894656863, 8.996038533592468], [80.92515109622057, 8.994149957083197], [80.92492626407463, 8.992378291299728], [80.92468344765673, 8.989815223842433], [80.92523203532599, 8.987989601463411], [80.92529498746448, 8.986316862244214], [80.92590652637394, 8.9843203667265], [80.92576263513003, 8.983151247691145], [80.92562773781877, 8.983097289393005], [80.92584357513378, 8.982737560397549], [80.92606840368643, 8.981982129321075], [80.92606840458477, 8.981073814584475], [80.92606840368643, 8.979850736944245], [80.92565471602336, 8.978870475773995], [80.92553780388242, 8.978762557008116], [80.9247913676617, 8.977845248419595], [80.92362224804863, 8.977656390689765], [80.92270494058279, 8.97753947867025], [80.92087931599043, 8.97779128933177], [80.91826228910752, 8.978456787144896], [80.9173989398475, 8.978816515951426], [80.91723706253502, 8.978762557008116], [80.9155373431179, 8.976712101452764], [80.91756981109263, 8.971648919475882], [80.92507015711516, 8.967350159521922], [80.92948582769088, 8.968959946648114], [80.93320902115008, 8.968294448275696], [80.93340687149814, 8.968348406113803]]]}}, {"type": "Feature", "properties": {"source": "UNEP-WCMC seagrass v7.1", "id": 28918}, "geometry": {"type": "Polygon", "coordinates": [[[78.55828839928915, 9.133481919522636], [78.51054339289249, 9.129039267509784], [78.48951724389269, 9.128544640256507], [78.4870171273541, 9.13232179304815], [78.48154025717031, 9.131098715488683], [78.48273635498796, 9.122932870944656], [78.44592710558518, 9.117509959233704], [78.4004034235787, 9.098345407093838], [78.37126539054525, 9.077211339915278], [78.36642703747552, 9.076599800087749], [78.3653478509005, 9.0692883120143], [78.34021179988142, 9.047902433985461], [78.3224861627451, 9.034817298730328], [78.31320516089505, 9.027343932950108], [78.29631589211918, 9.017208573760579], [78.27671067218465, 8.999545889422786], [78.27334720728439, 9.00018440754091], [78.2679332892391, 9.01317961106431], [78.26518136324825, 9.007954550041717], [78.26804120744744, 8.992486211334063], [78.26090059088213, 8.9916768213835], [78.21765219326825, 8.957205808913036], [78.20621281826818, 8.938454942252768], [78.19373922096638, 8.924929140554237], [78.18437727911258, 8.900512547246043], [78.1782079300156, 8.885296018375076], [78.1703478554342, 8.867120719522186], [78.16898987940571, 8.847290669089833], [78.17017698329073, 8.833899763958021], [78.17006906598073, 8.814879102782376], [78.16562641540374, 8.806515407283968], [78.16240684264567, 8.790012848963753], [78.1604283328768, 8.773096601316855], [78.16095893268084, 8.754489629021815], [78.15392623522222, 8.747402970258875], [78.15901639774418, 8.745100707694997], [78.17484446601367, 8.758815368419931], [78.1882623507826, 8.755595794680353], [78.19515115699733, 8.749930065755823], [78.20112265484792, 8.765569275774917], [78.20306519068292, 8.77851052068895], [78.20548436721778, 8.760542066079008], [78.19596054715318, 8.740712015227002], [78.1879835604308, 8.743904608212148], [78.16292844941542, 8.729596394808432], [78.15718178101585, 8.713318665708703], [78.14256779842925, 8.687903825493665], [78.13220760730924, 8.669350812350325], [78.13151513019271, 8.654934679531781], [78.13442893439435, 8.651148534176098], [78.12976145256975, 8.639682178813048], [78.13417712314546, 8.597432030770745], [78.13832299820034, 8.588204985584799], [78.14078713990673, 8.579013915407343], [78.12684764836811, 8.51553976547693], [78.13301699746505, 8.48831728800759], [78.1148237126632, 8.468712068049255], [78.07334698143586, 8.420706258869522], [78.06189861160485, 8.397153013416624], [78.06034278432999, 8.3760459265448], [78.06890432996057, 8.368266789845187], [78.05946144810304, 8.364957284801786], [78.01892900524108, 8.351377521532422], [77.99498905293794, 8.338517218068183], [77.96578806686773, 8.32321075642258], [77.9409847653046, 8.297957793745212], [77.94557130712546, 8.23973568566794], [78.00920733303178, 8.190704648701757], [78.10756618485526, 8.207818746376438], [78.16612104217225, 8.287013044044883], [78.20337095923932, 8.384067878913044], [78.23153772660106, 8.46787569840602], [78.26076569177422, 8.538427511121744], [78.29387872861737, 8.622208352373795], [78.31726110201356, 8.701654459774833], [78.34598544828225, 8.776621944069655], [78.39856880685032, 8.864710536845934], [78.43214949135906, 8.939651041961895], [78.48604586078409, 9.010067956017586], [78.55337810104663, 9.098066616132988], [78.55828839928915, 9.133481919522636]]]}}]}